[ {"spaceTrack": {"CCSDS_OMM_VERS": "2.0", "COMMENT": "GENERATED VIA SPACE-TRACK.ORG API", "CREATION_DATE": "2020-08-23 22:46:10", "ORIGINATOR": "18 SPCS", "OBJECT_NAME": "STARLINK-1567", "OBJECT_ID": "2020-055M", "CENTER_NAME": "EARTH", "REF_FRAME": "TEME", "TIME_SYSTEM": "UTC", "MEAN_ELEMENT_THEORY": "SGP4", "EPOCH": "2020-08-23 22:00:00.999936", "MEAN_MOTION": 15.21997137, "ECCENTRICITY": 0.0001564, "INCLINATION": 53.0072, "RA_OF_ASC_NODE": 212.1137, "ARG_OF_PERICENTER": 64.9923, "MEAN_ANOMALY": 141.0063, "EPHEMERIS_TYPE": 0, "CLASSIFICATION_TYPE": "U", "NORAD_CAT_ID": 46038, "ELEMENT_SET_NO": 999, "REV_AT_EPOCH": 335, "BSTAR": -0.048492, "MEAN_MOTION_DOT": -0.01029798, "MEAN_MOTION_DDOT": 0, "SEMIMAJOR_AXIS": 6877.954, "PERIOD": 94.612, "APOAPSIS": 500.894, "PERIAPSIS": 498.743, "OBJECT_TYPE": "PAYLOAD", "RCS_SIZE": "LARGE", "COUNTRY_CODE": "US", "LAUNCH_DATE": "2020-08-07", "SITE": "AFETR", "DECAY_DATE": null, "DECAYED": 0, "FILE": 2807289, "GP_ID": 159986765, "TLE_LINE0": "0 STARLINK-1567", "TLE_LINE1": "1 46038U 20055M   20236.91667824 -.01029798  00000-0 -48492-1 0  9995", "TLE_LINE2": "2 46038  53.0072 212.1137 0001564  64.9923 141.0063 15.21997137  3357"}, "version": "v1.0", "launch": "5ed9819a1f30554030d45c29", "longitude": 83.49963835851945, "latitude": -22.65460493586528, "height_km": 507.54410699341133, "velocity_kms": 7.609875432672521, "id": "5f36cb59bd888300062740a9"}, {"spaceTrack": {"CCSDS_OMM_VERS": "2.0", "COMMENT": "GENERATED VIA SPACE-TRACK.ORG API", "CREATION_DATE": "2020-08-23 14:46:10", "ORIGINATOR": "18 SPCS", "OBJECT_NAME": "STARLINK-1527", "OBJECT_ID": "2020-055X", "CENTER_NAME": "EARTH", "REF_FRAME": "TEME", "TIME_SYSTEM": "UTC", "MEAN_ELEMENT_THEORY": "SGP4", "EPOCH": "2020-08-23 14:00:01.999872", "MEAN_MOTION": 15.62800125, "ECCENTRICITY": 0.000806, "INCLINATION": 52.9989, "RA_OF_ASC_NODE": 211.4094, "ARG_OF_PERICENTER": 299.8188, "MEAN_ANOMALY": 293.4659, "EPHEMERIS_TYPE": 0, "CLASSIFICATION_TYPE": "U", "NORAD_CAT_ID": 46048, "ELEMENT_SET_NO": 999, "REV_AT_EPOCH": 333, "BSTAR": -0.00053908, "MEAN_MOTION_DOT": -0.00049779, "MEAN_MOTION_DDOT": 0, "SEMIMAJOR_AXIS": 6757.709, "PERIOD": 92.142, "APOAPSIS": 385.021, "PERIAPSIS": 374.128, "OBJECT_TYPE": "PAYLOAD", "RCS_SIZE": "LARGE", "COUNTRY_CODE": "US", "LAUNCH_DATE": "2020-08-07", "SITE": "AFETR", "DECAY_DATE": null, "DECAYED": 0, "FILE": 2807071, "GP_ID": 159940315, "TLE_LINE0": "0 STARLINK-1527", "TLE_LINE1": "1 46048U 20055X   20236.58335648 -.00049779  00000-0 -53908-3 0  9995", "TLE_LINE2": "2 46048  52.9989 211.4094 0008060 299.8188 293.4659 15.62800125  3333"}, "version": "v1.0", "launch": "5ed9819a1f30554030d45c29", "longitude": -142.33150622113828, "latitude": -29.651695275776593, "height_km": 383.5695803730905, "velocity_kms": 7.682584213195445, "id": "5f36cb59bd888300062740ac"}, {"spaceTrack": {"CCSDS_OMM_VERS": "2.0", "COMMENT": "GENERATED VIA SPACE-TRACK.ORG API", "CREATION_DATE": "2020-08-23 22:36:09", "ORIGINATOR": "18 SPCS", "OBJECT_NAME": "STARLINK-1532", "OBJECT_ID": "2020-055AT", "CENTER_NAME": "EARTH", "REF_FRAME": "TEME", "TIME_SYSTEM": "UTC", "MEAN_ELEMENT_THEORY": "SGP4", "EPOCH": "2020-08-23 22:00:00.999936", "MEAN_MOTION": 15.62746146, "ECCENTRICITY": 0.0009419, "INCLINATION": 53.0003, "RA_OF_ASC_NODE": 209.8245, "ARG_OF_PERICENTER": 310.1357, "MEAN_ANOMALY": 347.8101, "EPHEMERIS_TYPE": 0, "CLASSIFICATION_TYPE": "U", "NORAD_CAT_ID": 46068, "ELEMENT_SET_NO": 999, "REV_AT_EPOCH": 335, "BSTAR": 0.00015747, "MEAN_MOTION_DOT": 0.00013926, "MEAN_MOTION_DDOT": 0, "SEMIMAJOR_AXIS": 6757.865, "PERIOD": 92.145, "APOAPSIS": 386.095, "PERIAPSIS": 373.365, "OBJECT_TYPE": "PAYLOAD", "RCS_SIZE": "LARGE", "COUNTRY_CODE": "US", "LAUNCH_DATE": "2020-08-07", "SITE": "AFETR", "DECAY_DATE": null, "DECAYED": 0, "FILE": 2807280, "GP_ID": 159986075, "TLE_LINE0": "0 STARLINK-1532", "TLE_LINE1": "1 46068U 20055AT  20236.91667824  .00013926  00000-0  15747-3 0  9990", "TLE_LINE2": "2 46068  53.0003 209.8245 0009419 310.1357 347.8101 15.62746146  3357"}, "version": "v1.0", "launch": "5ed9819a1f30554030d45c29", "longitude": -152.47217504746754, "latitude": -37.73201623340889, "height_km": 385.5593660445238, "velocity_kms": 7.682051520757779, "id": "5f36cb59bd888300062740ae"}, {"spaceTrack": {"CCSDS_OMM_VERS": "2.0", "COMMENT": "GENERATED VIA SPACE-TRACK.ORG API", "CREATION_DATE": "2020-08-23 17:26:13", "ORIGINATOR": "18 SPCS", "OBJECT_NAME": "STARLINK-1580", "OBJECT_ID": "2020-055Q", "CENTER_NAME": "EARTH", "REF_FRAME": "TEME", "TIME_SYSTEM": "UTC", "MEAN_ELEMENT_THEORY": "SGP4", "EPOCH": "2020-08-23 14:00:01.999872", "MEAN_MOTION": 15.24736545, "ECCENTRICITY": 0.0001319, "INCLINATION": 53.006, "RA_OF_ASC_NODE": 213.6339, "ARG_OF_PERICENTER": 64.98, "MEAN_ANOMALY": 218.4444, "EPHEMERIS_TYPE": 0, "CLASSIFICATION_TYPE": "U", "NORAD_CAT_ID": 46041, "ELEMENT_SET_NO": 999, "REV_AT_EPOCH": 176, "BSTAR": -0.045824, "MEAN_MOTION_DOT": -0.01053981, "MEAN_MOTION_DDOT": 0, "SEMIMAJOR_AXIS": 6869.713, "PERIOD": 94.442, "APOAPSIS": 492.484, "PERIAPSIS": 490.672, "OBJECT_TYPE": "PAYLOAD", "RCS_SIZE": "LARGE", "COUNTRY_CODE": "US", "LAUNCH_DATE": "2020-08-07", "SITE": "AFETR", "DECAY_DATE": null, "DECAYED": 0, "FILE": 2807181, "GP_ID": 159963898, "TLE_LINE0": "0 STARLINK-1580", "TLE_LINE1": "1 46041U 20055Q   20236.58335648 -.01053981 +00000-0 -45824-1 0  9995", "TLE_LINE2": "2 46041 053.0060 213.6339 0001319 064.9800 218.4444 15.24736545001762"}, "version": "v1.0", "launch": "5ed9819a1f30554030d45c29", "longitude": -144.437870238406, "latitude": -33.47271257084335, "height_km": 505.08990949283634, "velocity_kms": 7.611317441297849, "id": "5f36cb59bd888300062740b3"}, {"spaceTrack": {"CCSDS_OMM_VERS": "2.0", "COMMENT": "GENERATED VIA SPACE-TRACK.ORG API", "CREATION_DATE": "2020-08-23 22:46:10", "ORIGINATOR": "18 SPCS", "OBJECT_NAME": "STARLINK-1591", "OBJECT_ID": "2020-055U", "CENTER_NAME": "EARTH", "REF_FRAME": "TEME", "TIME_SYSTEM": "UTC", "MEAN_ELEMENT_THEORY": "SGP4", "EPOCH": "2020-08-23 22:00:00.999936", "MEAN_MOTION": 15.23763951, "ECCENTRICITY": 0.0001276, "INCLINATION": 53.0084, "RA_OF_ASC_NODE": 212.1312, "ARG_OF_PERICENTER": 55.5469, "MEAN_ANOMALY": 246.3039, "EPHEMERIS_TYPE": 0, "CLASSIFICATION_TYPE": "U", "NORAD_CAT_ID": 46045, "ELEMENT_SET_NO": 999, "REV_AT_EPOCH": 335, "BSTAR": -0.047751, "MEAN_MOTION_DOT": -0.01065609, "MEAN_MOTION_DDOT": 0, "SEMIMAJOR_AXIS": 6872.636, "PERIOD": 94.502, "APOAPSIS": 495.378, "PERIAPSIS": 493.624, "OBJECT_TYPE": "PAYLOAD", "RCS_SIZE": "LARGE", "COUNTRY_CODE": "US", "LAUNCH_DATE": "2020-08-07", "SITE": "AFETR", "DECAY_DATE": null, "DECAYED": 0, "FILE": 2807292, "GP_ID": 159986810, "TLE_LINE0": "0 STARLINK-1591", "TLE_LINE1": "1 46045U 20055U   20236.91667824 -.01065609  00000-0 -47751-1 0  9991", "TLE_LINE2": "2 46045  53.0084 212.1312 0001276  55.5469 246.3039 15.23763951  3353"}, "version": "v1.0", "launch": "5ed9819a1f30554030d45c29", "longitude": -155.6452616081009, "latitude": -41.17468449329702, "height_km": 508.9046535731295, "velocity_kms": 7.609139879472855, "id": "5f36cb59bd888300062740b2"}, {"spaceTrack": {"CCSDS_OMM_VERS": "2.0", "COMMENT": "GENERATED VIA SPACE-TRACK.ORG API", "CREATION_DATE": "2020-08-23 22:36:09", "ORIGINATOR": "18 SPCS", "OBJECT_NAME": "STARLINK-1522", "OBJECT_ID": "2020-055A", "CENTER_NAME": "EARTH", "REF_FRAME": "TEME", "TIME_SYSTEM": "UTC", "MEAN_ELEMENT_THEORY": "SGP4", "EPOCH": "2020-08-23 22:00:00.999936", "MEAN_MOTION": 15.20875874, "ECCENTRICITY": 0.0001418, "INCLINATION": 53.0055, "RA_OF_ASC_NODE": 212.1891, "ARG_OF_PERICENTER": 66.7902, "MEAN_ANOMALY": 76.6782, "EPHEMERIS_TYPE": 0, "CLASSIFICATION_TYPE": "U", "NORAD_CAT_ID": 46027, "ELEMENT_SET_NO": 999, "REV_AT_EPOCH": 335, "BSTAR": -0.04789, "MEAN_MOTION_DOT": -0.00987379, "MEAN_MOTION_DDOT": 0, "SEMIMAJOR_AXIS": 6881.334, "PERIOD": 94.682, "APOAPSIS": 504.175, "PERIAPSIS": 502.223, "OBJECT_TYPE": "PAYLOAD", "RCS_SIZE": "MEDIUM", "COUNTRY_CODE": "US", "LAUNCH_DATE": "2020-08-07", "SITE": "AFETR", "DECAY_DATE": null, "DECAYED": 0, "FILE": 2807273, "GP_ID": 159986523, "TLE_LINE0": "0 STARLINK-1522", "TLE_LINE1": "1 46027U 20055A   20236.91667824 -.00987379  00000-0 -47890-1 0  9991", "TLE_LINE2": "2 46027  53.0055 212.1891 0001418  66.7902  76.6782 15.20875874  3351"}, "version": "v1.0", "launch": "5ed9819a1f30554030d45c29", "longitude": 43.132120751616824, "latitude": 26.784459635872512, "height_km": 504.6336462493027, "velocity_kms": 7.615667076171042, "id": "5f36cb59bd888300062740aa"}, {"spaceTrack": {"CCSDS_OMM_VERS": "2.0", "COMMENT": "GENERATED VIA SPACE-TRACK.ORG API", "CREATION_DATE": "2020-08-23 22:46:10", "ORIGINATOR": "18 SPCS", "OBJECT_NAME": "STARLINK-1558", "OBJECT_ID": "2020-055J", "CENTER_NAME": "EARTH", "REF_FRAME": "TEME", "TIME_SYSTEM": "UTC", "MEAN_ELEMENT_THEORY": "SGP4", "EPOCH": "2020-08-23 22:00:00.999936", "MEAN_MOTION": 15.21736656, "ECCENTRICITY": 0.0001491, "INCLINATION": 53.0069, "RA_OF_ASC_NODE": 212.1089, "ARG_OF_PERICENTER": 67.7653, "MEAN_ANOMALY": 125.7468, "EPHEMERIS_TYPE": 0, "CLASSIFICATION_TYPE": "U", "NORAD_CAT_ID": 46035, "ELEMENT_SET_NO": 999, "REV_AT_EPOCH": 335, "BSTAR": -0.046518, "MEAN_MOTION_DOT": -0.00984065, "MEAN_MOTION_DDOT": 0, "SEMIMAJOR_AXIS": 6878.739, "PERIOD": 94.628, "APOAPSIS": 501.629, "PERIAPSIS": 499.578, "OBJECT_TYPE": "PAYLOAD", "RCS_SIZE": "LARGE", "COUNTRY_CODE": "US", "LAUNCH_DATE": "2020-08-07", "SITE": "AFETR", "DECAY_DATE": null, "DECAYED": 0, "FILE": 2807288, "GP_ID": 159986743, "TLE_LINE0": "0 STARLINK-1558", "TLE_LINE1": "1 46035U 20055J   20236.91667824 -.00984065  00000-0 -46518-1 0  9995", "TLE_LINE2": "2 46035  53.0069 212.1089 0001491  67.7653 125.7468 15.21736656  3351"}, "version": "v1.0", "launch": "5ed9819a1f30554030d45c29", "longitude": 75.1493811845178, "latitude": -12.894838292483211, "height_km": 505.0894003666972, "velocity_kms": 7.611733627216265, "id": "5f36cb59bd888300062740b0"}]